[{"OBJECT_NAME":"STARLINK-2502","OBJECT_ID":"2021-036BD","EPOCH":"2026-03-10T00:00:02.999808","MEAN_MOTION":15.28340514,"ECCENTRICITY":9.335e-5,"INCLINATION":53.1499,"RA_OF_ASC_NODE":99.3642,"ARG_OF_PERICENTER":50.0408,"MEAN_ANOMALY":293.7111,"EPHEMERIS_TYPE":0,"CLASSIFICATION_TYPE":"U","NORAD_CAT_ID":48327,"ELEMENT_SET_NO":999,"REV_AT_EPOCH":579,"BSTAR":0.043872504,"MEAN_MOTION_DOT":0.01350461,"MEAN_MOTION_DDOT":0},{"OBJECT_NAME":"OBJECT AL","OBJECT_ID":"2023-091AL","EPOCH":"2026-03-09T22:53:40.653600","MEAN_MOTION":15.4037964,"ECCENTRICITY":0.00073468,"INCLINATION":97.5155,"RA_OF_ASC_NODE":140.236,"ARG_OF_PERICENTER":61.3849,"MEAN_ANOMALY":298.8135,"EPHEMERIS_TYPE":0,"CLASSIFICATION_TYPE":"U","NORAD_CAT_ID":57200,"ELEMENT_SET_NO":999,"REV_AT_EPOCH":14970,"BSTAR":0.00078905328,"MEAN_MOTION_DOT":0.00031911,"MEAN_MOTION_DDOT":0}]
